{
  "norad_id": 53918,
  "name": "STARLINK-5012",
  "history": [
    {
      "epoch": "2026-03-28T16:24:33.165216Z",
      "apogee_km": 540.7022648448692,
      "perigee_km": 538.8200431151354,
      "latitude_deg": -1.365887134207972e-06,
      "longitude_deg": 156.52097232876372,
      "height_km": 540.6507508660457,
      "semi_major_axis_km": 6917.8981539800025,
      "eccentricity": 0.00013604,
      "inclination_deg": 53.2176,
      "raan_deg": 228.7598,
      "arg_perigee_deg": 89.6269,
      "mean_anomaly_deg": 270.4879,
      "mean_motion_rev_day": 15.08834188
    },
    {
      "epoch": "2026-03-29T01:56:52.109952Z",
      "apogee_km": 540.6757265245978,
      "perigee_km": 538.8577014285656,
      "latitude_deg": 3.409825930486646e-05,
      "longitude_deg": 11.266226006670616,
      "height_km": 540.626360905529,
      "semi_major_axis_km": 6917.9037139765815,
      "eccentricity": 0.0001314,
      "inclination_deg": 53.2177,
      "raan_deg": 226.9757,
      "arg_perigee_deg": 87.7209,
      "mean_anomaly_deg": 272.3934,
      "mean_motion_rev_day": 15.08832369
    },
    {
      "epoch": "2026-03-30T01:47:38.925312Z",
      "apogee_km": 540.6442548224923,
      "perigee_km": 538.8427003885145,
      "latitude_deg": -2.6373155175483553e-05,
      "longitude_deg": 8.1307833124799,
      "height_km": 540.5357264972146,
      "semi_major_axis_km": 6917.880477605503,
      "eccentricity": 0.00013021,
      "inclination_deg": 53.2176,
      "raan_deg": 222.5147,
      "arg_perigee_deg": 83.3972,
      "mean_anomaly_deg": 276.7168,
      "mean_motion_rev_day": 15.08839971
    },
    {
      "epoch": "2026-03-30T12:55:21.659232Z",
      "apogee_km": 540.7070750376624,
      "perigee_km": 538.9403662288278,
      "latitude_deg": 4.764114511714339e-05,
      "longitude_deg": -161.33605190406257,
      "height_km": 540.5418409612151,
      "semi_major_axis_km": 6917.960720633245,
      "eccentricity": 0.00012769,
      "inclination_deg": 53.2179,
      "raan_deg": 220.4329,
      "arg_perigee_deg": 78.3899,
      "mean_anomaly_deg": 281.7237,
      "mean_motion_rev_day": 15.08813719
    },
    {
      "epoch": "2026-03-30T14:30:44.342496Z",
      "apogee_km": 540.7070729375828,
      "perigee_km": 538.8117076845656,
      "latitude_deg": -2.746431479910281e-05,
      "longitude_deg": 174.4563947723781,
      "height_km": 540.4793187193927,
      "semi_major_axis_km": 6917.896390311074,
      "eccentricity": 0.00013699,
      "inclination_deg": 53.2177,
      "raan_deg": 220.1352,
      "arg_perigee_deg": 79.3073,
      "mean_anomaly_deg": 280.8073,
      "mean_motion_rev_day": 15.08834765
    },
    {
      "epoch": "2026-03-31T14:21:32.539392Z",
      "apogee_km": 540.7387000829776,
      "perigee_km": 538.8431878263336,
      "latitude_deg": 2.964400544574127e-05,
      "longitude_deg": 171.31596808405297,
      "height_km": 540.5203807030172,
      "semi_major_axis_km": 6917.927943954655,
      "eccentricity": 0.000137,
      "inclination_deg": 53.2169,
      "raan_deg": 215.6749,
      "arg_perigee_deg": 79.8988,
      "mean_anomaly_deg": 280.2159,
      "mean_motion_rev_day": 15.08824442
    },
    {
      "epoch": "2026-04-01T07:50:44.402784Z",
      "apogee_km": 541.2147426558895,
      "perigee_km": 538.1376993351914,
      "latitude_deg": 1.4218557205294822e-05,
      "longitude_deg": -94.97432354163831,
      "height_km": 540.5170933452731,
      "semi_major_axis_km": 6917.81322099554,
      "eccentricity": 0.0002224,
      "inclination_deg": 53.2174,
      "raan_deg": 212.4022,
      "arg_perigee_deg": 88.0037,
      "mean_anomaly_deg": 272.121,
      "mean_motion_rev_day": 15.08861975
    },
    {
      "epoch": "2026-04-02T14:03:05.207616Z",
      "apogee_km": 540.5630697589886,
      "perigee_km": 538.8514567313769,
      "latitude_deg": 2.5483827576648462e-05,
      "longitude_deg": 165.05169200520547,
      "height_km": 540.5595986654863,
      "semi_major_axis_km": 6917.844263245182,
      "eccentricity": 0.00012371,
      "inclination_deg": 53.2158,
      "raan_deg": 206.7554,
      "arg_perigee_deg": 87.0949,
      "mean_anomaly_deg": 273.0185,
      "mean_motion_rev_day": 15.08851819
    },
    {
      "epoch": "2026-04-03T17:04:37.966656Z",
      "apogee_km": 540.587452589496,
      "perigee_km": 538.8953395338203,
      "latitude_deg": 4.859831035971552e-06,
      "longitude_deg": 113.49907211874701,
      "height_km": 540.5815514751928,
      "semi_major_axis_km": 6917.878396061658,
      "eccentricity": 0.0001223,
      "inclination_deg": 53.2158,
      "raan_deg": 201.6992,
      "arg_perigee_deg": 86.2338,
      "mean_anomaly_deg": 273.8794,
      "mean_motion_rev_day": 15.08840652
    },
    {
      "epoch": "2026-04-04T13:44:39.520032Z",
      "apogee_km": 540.722612873582,
      "perigee_km": 538.7814532109114,
      "latitude_deg": 9.822373720062048e-06,
      "longitude_deg": 158.77873528066547,
      "height_km": 540.6630244360055,
      "semi_major_axis_km": 6917.889033042246,
      "eccentricity": 0.0001403,
      "inclination_deg": 53.2168,
      "raan_deg": 197.8341,
      "arg_perigee_deg": 90.9098,
      "mean_anomaly_deg": 269.2055,
      "mean_motion_rev_day": 15.08837172
    },
    {
      "epoch": "2026-04-05T13:35:27.791232Z",
      "apogee_km": 540.7766188800806,
      "perigee_km": 538.7787251228074,
      "latitude_deg": -9.891194331843016e-06,
      "longitude_deg": 155.64023830866674,
      "height_km": 540.7515289493019,
      "semi_major_axis_km": 6917.914672001444,
      "eccentricity": 0.0001444,
      "inclination_deg": 53.2184,
      "raan_deg": 193.3761,
      "arg_perigee_deg": 94.4875,
      "mean_anomaly_deg": 265.6282,
      "mean_motion_rev_day": 15.08828784
    },
    {
      "epoch": "2026-04-05T13:35:27.792096Z",
      "apogee_km": 540.776272984348,
      "perigee_km": 538.7790710185409,
      "latitude_deg": 7.529209470058156e-05,
      "longitude_deg": 155.64029803209897,
      "height_km": 540.7514896950854,
      "semi_major_axis_km": 6917.914672001444,
      "eccentricity": 0.00014435,
      "inclination_deg": 53.2184,
      "raan_deg": 193.3761,
      "arg_perigee_deg": 94.4875,
      "mean_anomaly_deg": 265.6283,
      "mean_motion_rev_day": 15.08828784
    },
    {
      "epoch": "2026-04-06T07:04:41.875104Z",
      "apogee_km": 540.6852440532311,
      "perigee_km": 538.8882441814585,
      "latitude_deg": 1.370386582218804e-05,
      "longitude_deg": -110.65780411143479,
      "height_km": 540.7231802012708,
      "semi_major_axis_km": 6917.9237441173445,
      "eccentricity": 0.00012988,
      "inclination_deg": 53.2185,
      "raan_deg": 190.1049,
      "arg_perigee_deg": 92.5857,
      "mean_anomaly_deg": 267.5284,
      "mean_motion_rev_day": 15.08825816
    }
  ]
}